#aV2010  8 19  0  0   .00000000      96 DD+AD WGS84 FIT  NGA
## 1597 345600.00000000   900.00000000 55427  .0000000000000
+   32     1  2  3  4  5  6  7  8  9 10 11 12 13 14 15 16 17
+         18 19 20 21 22 23 24 25 26 27 28 29 30 31 32  0  0
+          0  0  0  0  0  0  0  0  0  0  0  0  0  0  0  0  0
+          0  0  0  0  0  0  0  0  0  0  0  0  0  0  0  0  0
+          0  0  0  0  0  0  0  0  0  0  0  0  0  0  0  0  0
++         0  0  0  0  0  0  0  0  0  0  0  0  0  0  0  0  0
++         0  0  0  0  0  0  0  0  0  0  0  0  0  0  0  0  0
++         0  0  0  0  0  0  0  0  0  0  0  0  0  0  0  0  0
++         0  0  0  0  0  0  0  0  0  0  0  0  0  0  0  0  0
++         0  0  0  0  0  0  0  0  0  0  0  0  0  0  0  0  0
%c cc cc ccc ccc cccc cccc cccc cccc ccccc ccccc ccccc ccccc
%c cc cc ccc ccc cccc cccc cccc cccc ccccc ccccc ccccc ccccc
%f  0.0000000  0.000000000  0.00000000000  0.000000000000000
%f  0.0000000  0.000000000  0.00000000000  0.000000000000000
%i    0    0    0    0      0      0      0      0         0
%i    0    0    0    0      0      0      0      0         0
/*      NGA, ST. LOUIS,MO.                                  
/*   EPHEMERIS COMPUTED FROM  3 DAYS OF DATA                
/* CCCCCCCCCCCCCCCCCCCCCCCCCCCCCCCCCCCCCCCCCCCCCCCCCCCCCCCCC
/* CCCCCCCCCCCCCCCCCCCCCCCCCCCCCCCCCCCCCCCCCCCCCCCCCCCCCCCCC
*  2010  8 19 21 30   .00000000                                                 
P  1  11827.453553  10375.028236 -21532.065644   -153.672842                    
V  1 -23200.203591  13878.963811  -5966.195929      -.040028                    
P  2 -13500.501380 -14079.536330 -18230.097335    282.090587                    
V  2   1309.386521 -23059.813605  16382.045679       .028633                    
P  3  24971.576947   9358.196675   1663.682714    597.160286                    
V  3    940.369989   4283.621226 -30699.320357       .049244                    
P  4  -7082.686749 -23504.202838  -9849.006846    150.299816                    
V  4   3435.930351 -12392.881037  27958.953447       .083541                    
P  5 -21089.438671  -1014.081490 -16179.979190    -25.969106                    
V  5  16816.526678 -11876.299692 -21099.838625      -.044020                    
P  6  22950.066538  13396.405677  -1864.882524    527.356822                    
V  6  -3876.855148   1911.950759 -30951.812150      -.149694                    
P  7   6436.561186 -23988.185220  -9152.034866     -1.945280                    
V  7   2282.439988  11668.738345 -29195.177034      -.000469                    
P  8    105.975771 -26093.484376   2953.045238      6.450950                    
V  8   2498.630444  -3623.565329 -32544.670570       .001011                    
P  9 -13796.020264   7487.263888  20876.169012     25.327095                    
V  9  -1315.123571 -27714.638761   8862.247010       .023028                    
P 10 -11166.602408 -11344.715858 -21483.386490    -50.092102                    
V 10  23435.434931 -13081.207374  -4971.311909      -.010044                    
P 11  12904.349752 -12681.254805  19073.389032    -83.664811                    
V 11   7868.792451  24058.719158  10888.443403      -.026946                    
P 12 -23709.732464  11612.395125   2037.342110    -81.454949                    
V 12    967.031932  -3507.173086  31956.887469       .038125                    
P 13   8028.035930 -12171.418682 -22337.130795    299.388016                    
V 13  23087.296198  15734.171225   -322.639469      -.008210                    
P 14  12143.501966  19100.267929  14160.846138     80.163834                    
V 14 -15548.895030  -8429.566420  24822.873117       .038558                    
P 15 -23301.491360  -2815.746823  12570.093312   -221.424326                    
V 15 -12703.380468  -9864.458570 -25668.431155       .056182                    
P 16  17443.467518   5586.303074 -19301.900657   -100.744001                    
V 16 -21084.573713  12426.027475 -15162.852143      -.035419                    
P 17  -9187.039140 -19047.175114  16306.962895    167.255589                    
V 17  18286.270427   9256.056208  21041.215795       .015823                    
P 18 -12319.206243  18686.126424  14293.127605     88.002641                    
V 18 -17076.273486   6029.331408 -23449.705462       .022512                    
P 19  22693.250814   4281.834247  13422.464834    -58.985107                    
V 19  12703.779738  11320.568020 -24807.607013      -.030454                    
P 20  22949.511194 -13262.405126   1016.433362     51.998111                    
V 20    680.707750   3871.167518  31191.796789      -.004365                    
P 21  -4581.113432  25122.718871  -5635.317110    -82.206011                    
V 21  -4052.895014  -7827.802743 -30372.300694      -.026859                    
P 22    -97.454445  17191.827305  20396.253255    164.953449                    
V 22 -23127.159949  11131.134306  -9670.760810      -.008820                    
P 23  17226.624573  -5456.928096 -19592.744228    357.775585                    
V 23  20736.644507  13493.225400  14157.452015      -.017440                    
P 24  11897.041116  15947.699038  17807.748746    314.277367                    
V 24  -2897.273170  22255.629737 -17824.528687       .031954                    
P 25 -18718.303662  17265.298543  -7600.682991    -35.581973                    
V 25  -9622.086372   2629.393794  29738.561579      -.093114                    
P 26 -23314.411900 -12102.835370   4670.604360   -101.368463                    
V 26  -4554.552404  -4981.729644 -31397.173227      -.066469                    
P 27 -15059.393817   1604.143669  22493.942576    181.192557                    
V 27  -1426.907359 -26845.006479   1178.540731       .033527                    
P 28   3309.220716 -17350.714778  20228.329172     -6.672641                    
V 28  22356.916245 -10524.303856 -13278.144720       .013334                    
P 29  -9012.917648  12232.318221 -21698.124062    143.149473                    
V 29 -23433.722050 -14876.443260   1382.564496       .026781                    
P 30 -17018.300068  18383.683308  -9171.085870    270.838563                    
V 30 -10776.697914   3712.986881  28761.135105       .034253                    
P 31   7891.616075  22152.881034 -11969.366267    -15.938870                    
V 31  -2226.368897  15539.032622  27004.041072       .028678                    
P 32  24790.968948  -6043.282426   6999.655462    -65.274260                    
V 32  -6495.771219   6303.457640  30222.891511      -.089199                    
EOF
